STARLINK-1807           
1 46706U 20073AN  26068.64914205  .00041618  00000+0  17212-2 0  9992
2 46706  53.0589 228.5688 0005019 167.7565 192.3554 15.23578372297310
2024-205C               
1 61896U 24205C   26067.20867002  .00012247  00000+0  67177-3 0  9995
2 61896  97.4204 141.0161 0044383 341.9375  18.0277 15.13448144 72971
